{"type":"FeatureCollection","name":"trees","features":[{"type":"Feature","properties":{"REMARKS":"SOB"},"geometry":{"type":"Point","coordinates":[-7.444802988,39.419128468,569.151]}},{"type":"Feature","properties":{"REMARKS":"SOB"},"geometry":{"type":"Point","coordinates":[-7.444918333,39.418985143,570.8]}},{"type":"Feature","properties":{"REMARKS":"MARM"},"geometry":{"type":"Point","coordinates":[-7.444905435,39.418955415,571.833]}},{"type":"Feature","properties":{"REMARKS":"MARM"},"geometry":{"type":"Point","coordinates":[-7.444985045,39.419024683,571.368]}},{"type":"Feature","properties":{"REMARKS":"HAWTH"},"geometry":{"type":"Point","coordinates":[-7.445008347,39.419047968,570.941]}},{"type":"Feature","properties":{"REMARKS":"HAWTH"},"geometry":{"type":"Point","coordinates":[-7.44502981,39.419066565,570.875]}},{"type":"Feature","properties":{"REMARKS":"AMEND"},"geometry":{"type":"Point","coordinates":[-7.445187258,39.418912073,572.728]}},{"type":"Feature","properties":{"REMARKS":"MARM"},"geometry":{"type":"Point","coordinates":[-7.444591527,39.418779747,572.729]}},{"type":"Feature","properties":{"REMARKS":"FIG"},"geometry":{"type":"Point","coordinates":[-7.444567132,39.418768233,572.377]}},{"type":"Feature","properties":{"REMARKS":"SOB"},"geometry":{"type":"Point","coordinates":[-7.44452511,39.418747203,572.405]}},{"type":"Feature","properties":{"REMARKS":"FIG"},"geometry":{"type":"Point","coordinates":[-7.444376018,39.418656068,573.471]}},{"type":"Feature","properties":{"REMARKS":"HAWTH"},"geometry":{"type":"Point","coordinates":[-7.444168312,39.41866663,572.568]}},{"type":"Feature","properties":{"REMARKS":"CARVP"},"geometry":{"type":"Point","coordinates":[-7.444006785,39.418901363,572.286]}},{"type":"Feature","properties":{"REMARKS":"CARVP"},"geometry":{"type":"Point","coordinates":[-7.443986793,39.418927615,572.506]}},{"type":"Feature","properties":{"REMARKS":"AZINH"},"geometry":{"type":"Point","coordinates":[-7.44394874,39.419025327,571.815]}},{"type":"Feature","properties":{"REMARKS":"AZINH"},"geometry":{"type":"Point","coordinates":[-7.443946828,39.419031303,571.834]}},{"type":"Feature","properties":{"REMARKS":"CARVP"},"geometry":{"type":"Point","coordinates":[-7.443917567,39.41913572,571.654]}},{"type":"Feature","properties":{"REMARKS":"CARVP"},"geometry":{"type":"Point","coordinates":[-7.443893988,39.419186845,571.616]}},{"type":"Feature","properties":{"REMARKS":"CARVP"},"geometry":{"type":"Point","coordinates":[-7.443876465,39.419221067,571.774]}},{"type":"Feature","properties":{"REMARKS":"CARVP"},"geometry":{"type":"Point","coordinates":[-7.443873825,39.419227817,571.715]}},{"type":"Feature","properties":{"REMARKS":"CARVP"},"geometry":{"type":"Point","coordinates":[-7.443866875,39.419234505,572.233]}},{"type":"Feature","properties":{"REMARKS":"CARVP"},"geometry":{"type":"Point","coordinates":[-7.443897695,39.419297338,572.161]}},{"type":"Feature","properties":{"REMARKS":"HAWTH"},"geometry":{"type":"Point","coordinates":[-7.444184833,39.419363918,570.831]}},{"type":"Feature","properties":{"REMARKS":"CARVP"},"geometry":{"type":"Point","coordinates":[-7.44418577,39.419377443,571.338]}},{"type":"Feature","properties":{"REMARKS":"CARVP"},"geometry":{"type":"Point","coordinates":[-7.444181283,39.419377382,571.408]}},{"type":"Feature","properties":{"REMARKS":"CARVP"},"geometry":{"type":"Point","coordinates":[-7.444174187,39.419376168,571.544]}},{"type":"Feature","properties":{"REMARKS":"HAWTH"},"geometry":{"type":"Point","coordinates":[-7.444307268,39.419415853,570.791]}},{"type":"Feature","properties":{"REMARKS":"LILAC"},"geometry":{"type":"Point","coordinates":[-7.444998997,39.419366922,567.58]}},{"type":"Feature","properties":{"REMARKS":"LILAC"},"geometry":{"type":"Point","coordinates":[-7.445012907,39.419350828,567.83]}},{"type":"Feature","properties":{"REMARKS":"AMEIXA"},"geometry":{"type":"Point","coordinates":[-7.445053005,39.41940718,565.856]}},{"type":"Feature","properties":{"REMARKS":"AMEIXA"},"geometry":{"type":"Point","coordinates":[-7.4450222,39.419429682,566.887]}},{"type":"Feature","properties":{"REMARKS":"AMEIXA"},"geometry":{"type":"Point","coordinates":[-7.444996688,39.419459803,566.539]}},{"type":"Feature","properties":{"REMARKS":"FIG"},"geometry":{"type":"Point","coordinates":[-7.445029583,39.419501168,565.734]}},{"type":"Feature","properties":{"REMARKS":"FIG"},"geometry":{"type":"Point","coordinates":[-7.445358032,39.419349948,568.913]}},{"type":"Feature","properties":{"REMARKS":"FIG"},"geometry":{"type":"Point","coordinates":[-7.445391023,39.419255043,570.043]}},{"type":"Feature","properties":{"REMARKS":"FIG"},"geometry":{"type":"Point","coordinates":[-7.445133177,39.419231942,568.783]}},{"type":"Feature","properties":{"REMARKS":"CYP"},"geometry":{"type":"Point","coordinates":[-7.445148538,39.419210983,569.687]}},{"type":"Feature","properties":{"REMARKS":"CYP"},"geometry":{"type":"Point","coordinates":[-7.445166868,39.419168633,570.808]}},{"type":"Feature","properties":{"REMARKS":"CARVP"},"geometry":{"type":"Point","coordinates":[-7.4452027,39.418633912,574.858]}},{"type":"Feature","properties":{"REMARKS":"CARVP"},"geometry":{"type":"Point","coordinates":[-7.445206955,39.41859446,575.281]}},{"type":"Feature","properties":{"REMARKS":"HAWTH"},"geometry":{"type":"Point","coordinates":[-7.445206578,39.418594502,575.255]}},{"type":"Feature","properties":{"REMARKS":"OSYRISALBA"},"geometry":{"type":"Point","coordinates":[-7.445214547,39.41855182,575.415]}},{"type":"Feature","properties":{"REMARKS":"CARVP"},"geometry":{"type":"Point","coordinates":[-7.445158515,39.418417758,575.841]}},{"type":"Feature","properties":{"REMARKS":"OSYRISALBA"},"geometry":{"type":"Point","coordinates":[-7.445143448,39.418391233,575.886]}},{"type":"Feature","properties":{"REMARKS":"OSYRISALBA"},"geometry":{"type":"Point","coordinates":[-7.445119135,39.418372978,575.606]}},{"type":"Feature","properties":{"REMARKS":"CARVP"},"geometry":{"type":"Point","coordinates":[-7.445064065,39.418387167,575.861]}},{"type":"Feature","properties":{"REMARKS":"CARVP"},"geometry":{"type":"Point","coordinates":[-7.445036105,39.418393935,575.822]}},{"type":"Feature","properties":{"REMARKS":"OSYRISALBA"},"geometry":{"type":"Point","coordinates":[-7.44503679,39.418392017,575.927]}},{"type":"Feature","properties":{"REMARKS":"CARVP"},"geometry":{"type":"Point","coordinates":[-7.444995697,39.41839701,576.328]}},{"type":"Feature","properties":{"REMARKS":"CARVP"},"geometry":{"type":"Point","coordinates":[-7.444936328,39.41840145,575.598]}},{"type":"Feature","properties":{"REMARKS":"CARVP"},"geometry":{"type":"Point","coordinates":[-7.444913402,39.418406457,575.765]}},{"type":"Feature","properties":{"REMARKS":"CARVP"},"geometry":{"type":"Point","coordinates":[-7.44489771,39.418397253,576.013]}},{"type":"Feature","properties":{"REMARKS":"OSYRISALBA"},"geometry":{"type":"Point","coordinates":[-7.444897688,39.418397368,576.022]}},{"type":"Feature","properties":{"REMARKS":"CARVP"},"geometry":{"type":"Point","coordinates":[-7.44486999,39.41839636,576.126]}},{"type":"Feature","properties":{"REMARKS":"GILB"},"geometry":{"type":"Point","coordinates":[-7.444874625,39.41839767,576.099]}},{"type":"Feature","properties":{"REMARKS":"GILB"},"geometry":{"type":"Point","coordinates":[-7.44484727,39.418394595,576.003]}},{"type":"Feature","properties":{"REMARKS":"CARVP"},"geometry":{"type":"Point","coordinates":[-7.444830278,39.418393483,575.357]}},{"type":"Feature","properties":{"REMARKS":"GILB"},"geometry":{"type":"Point","coordinates":[-7.444811517,39.418389883,575.422]}},{"type":"Feature","properties":{"REMARKS":"HERA"},"geometry":{"type":"Point","coordinates":[-7.444794385,39.418390868,575.412]}},{"type":"Feature","properties":{"REMARKS":"CARVP"},"geometry":{"type":"Point","coordinates":[-7.444794317,39.418390915,575.354]}},{"type":"Feature","properties":{"REMARKS":"GILB"},"geometry":{"type":"Point","coordinates":[-7.444770912,39.418383392,575.439]}},{"type":"Feature","properties":{"REMARKS":"CARVP"},"geometry":{"type":"Point","coordinates":[-7.444756793,39.418382485,575.858]}},{"type":"Feature","properties":{"REMARKS":"CARVP"},"geometry":{"type":"Point","coordinates":[-7.444733245,39.418379495,575.384]}},{"type":"Feature","properties":{"REMARKS":"GILB"},"geometry":{"type":"Point","coordinates":[-7.444726895,39.41838017,575.467]}},{"type":"Feature","properties":{"REMARKS":"CARVP"},"geometry":{"type":"Point","coordinates":[-7.444710842,39.418380158,575.372]}},{"type":"Feature","properties":{"REMARKS":"HAWTH"},"geometry":{"type":"Point","coordinates":[-7.444711502,39.418379553,575.395]}},{"type":"Feature","properties":{"REMARKS":"CARVP"},"geometry":{"type":"Point","coordinates":[-7.44467317,39.418382202,575.51]}},{"type":"Feature","properties":{"REMARKS":"CARVP"},"geometry":{"type":"Point","coordinates":[-7.444643375,39.418383312,575.288]}},{"type":"Feature","properties":{"REMARKS":"GILB"},"geometry":{"type":"Point","coordinates":[-7.44463223,39.418383295,575.178]}},{"type":"Feature","properties":{"REMARKS":"GILB"},"geometry":{"type":"Point","coordinates":[-7.444599273,39.418385035,575.227]}},{"type":"Feature","properties":{"REMARKS":"GILB"},"geometry":{"type":"Point","coordinates":[-7.444567243,39.41838681,575.262]}},{"type":"Feature","properties":{"REMARKS":"OSYRISALBA"},"geometry":{"type":"Point","coordinates":[-7.44453035,39.4183895,575.301]}},{"type":"Feature","properties":{"REMARKS":"OSYRISALBA"},"geometry":{"type":"Point","coordinates":[-7.444504217,39.418389963,575.425]}},{"type":"Feature","properties":{"REMARKS":"GILB"},"geometry":{"type":"Point","coordinates":[-7.44448205,39.418389683,575.502]}},{"type":"Feature","properties":{"REMARKS":"GILB"},"geometry":{"type":"Point","coordinates":[-7.444453872,39.418386663,575.036]}},{"type":"Feature","properties":{"REMARKS":"MADRESSILVA"},"geometry":{"type":"Point","coordinates":[-7.444451273,39.418386747,575.09]}},{"type":"Feature","properties":{"REMARKS":"OSYRISALBA"},"geometry":{"type":"Point","coordinates":[-7.44443403,39.418387557,574.963]}},{"type":"Feature","properties":{"REMARKS":"MADRESSILVA"},"geometry":{"type":"Point","coordinates":[-7.444428158,39.4183861,574.994]}},{"type":"Feature","properties":{"REMARKS":"MADRESSILVA"},"geometry":{"type":"Point","coordinates":[-7.444401458,39.418383307,574.857]}},{"type":"Feature","properties":{"REMARKS":"GILB"},"geometry":{"type":"Point","coordinates":[-7.444394873,39.418380443,574.921]}},{"type":"Feature","properties":{"REMARKS":"CARVP"},"geometry":{"type":"Point","coordinates":[-7.444385665,39.418380535,574.859]}},{"type":"Feature","properties":{"REMARKS":"CARVP"},"geometry":{"type":"Point","coordinates":[-7.444367265,39.418373868,574.656]}},{"type":"Feature","properties":{"REMARKS":"OSYRISALBA"},"geometry":{"type":"Point","coordinates":[-7.444341523,39.418372542,574.876]}},{"type":"Feature","properties":{"REMARKS":"GILB"},"geometry":{"type":"Point","coordinates":[-7.444347523,39.41836862,575.517]}},{"type":"Feature","properties":{"REMARKS":"CARVP"},"geometry":{"type":"Point","coordinates":[-7.444339195,39.418373372,574.988]}},{"type":"Feature","properties":{"REMARKS":"GILB"},"geometry":{"type":"Point","coordinates":[-7.4443205,39.41837184,575.107]}},{"type":"Feature","properties":{"REMARKS":"CARVP"},"geometry":{"type":"Point","coordinates":[-7.444325358,39.41836754,575.591]}},{"type":"Feature","properties":{"REMARKS":"OSYRISALBA"},"geometry":{"type":"Point","coordinates":[-7.444992915,39.418399255,576.508]}},{"type":"Feature","properties":{"REMARKS":"OSYRISALBA"},"geometry":{"type":"Point","coordinates":[-7.445019498,39.418395582,576.009]}},{"type":"Feature","properties":{"REMARKS":"OSYRISALBA"},"geometry":{"type":"Point","coordinates":[-7.44521321,39.418551177,575.474]}},{"type":"Feature","properties":{"REMARKS":"GORSE"},"geometry":{"type":"Point","coordinates":[-7.44520669,39.418520782,575.605]}},{"type":"Feature","properties":{"REMARKS":"OSYRISALBA"},"geometry":{"type":"Point","coordinates":[-7.445203852,39.41866211,574.726]}},{"type":"Feature","properties":{"REMARKS":"OSYRISALBA"},"geometry":{"type":"Point","coordinates":[-7.445223833,39.418703685,574.291]}},{"type":"Feature","properties":{"REMARKS":"CARVP"},"geometry":{"type":"Point","coordinates":[-7.445230147,39.41872854,573.976]}},{"type":"Feature","properties":{"REMARKS":"OSYRISALBA"},"geometry":{"type":"Point","coordinates":[-7.4452375,39.418739387,573.839]}},{"type":"Feature","properties":{"REMARKS":"OSYRISALBA"},"geometry":{"type":"Point","coordinates":[-7.445251833,39.41880736,573.434]}},{"type":"Feature","properties":{"REMARKS":"OSYRISALBA"},"geometry":{"type":"Point","coordinates":[-7.445266115,39.418823277,573.249]}},{"type":"Feature","properties":{"REMARKS":"OSYRISALBA"},"geometry":{"type":"Point","coordinates":[-7.445288653,39.418882307,572.838]}},{"type":"Feature","properties":{"REMARKS":"GORREIRO"},"geometry":{"type":"Point","coordinates":[-7.44531695,39.418975142,572.285]}},{"type":"Feature","properties":{"REMARKS":"OSYRISALBA"},"geometry":{"type":"Point","coordinates":[-7.445233332,39.41938855,567.655]}},{"type":"Feature","properties":{"REMARKS":"OSYRISALBA"},"geometry":{"type":"Point","coordinates":[-7.445214293,39.419378488,567.847]}},{"type":"Feature","properties":{"REMARKS":"OSYRISALBA"},"geometry":{"type":"Point","coordinates":[-7.445186278,39.419365813,567.731]}},{"type":"Feature","properties":{"REMARKS":"SABO"},"geometry":{"type":"Point","coordinates":[-7.445341292,39.419440815,567.69]}}]}